STARLINK-35877          
1 67049U 25294V   25357.83334491 -.01878707  00000+0 -12932-1 0  9992
2 67049  43.0003 114.1855 0001357 280.4570 278.8878 15.76880238  2081
STARLINK-36078          
1 67050U 25294W   25357.83334491 -.01882994  00000+0 -12977-1 0  9996
2 67050  43.0003 114.1796 0001280 281.2998 280.3874 15.76861999  2004
STARLINK-35706          
1 67051U 25294X   25357.83334491 -.01885067  00000+0 -13003-1 0  9992
2 67051  43.0003 114.1735 0001369 280.2106 283.8034 15.76844760  2087
STARLINK-35720          
1 67052U 25294Y   25357.83334491 -.01886089  00000+0 -13012-1 0  9998
2 67052  43.0003 114.1686 0001395 279.5328 286.4684 15.76842998  2079
STARLINK-35739          
1 67053U 25294Z   25357.83334491 -.01883709  00000+0 -13001-1 0  9993
2 67053  43.0004 114.1629 0001420 279.6831 288.5123 15.76828653  1732
STARLINK-35754          
1 67054U 25294AA  25357.83334491 -.01886082  00000+0 -13032-1 0  9995
2 67054  43.0004 114.1571 0001289 280.5200 290.0381 15.76810392  1895
STARLINK-35790          
1 67055U 25294AB  25357.83334491 -.01885923  00000+0 -13040-1 0  9998
2 67055  43.0003 114.1508 0001240 278.5174 294.3288 15.76793616  2083
STARLINK-36143          
1 67056U 25294AC  25357.83334491 -.01883017  00000+0 -13027-1 0  9996
2 67056  43.0002 114.1351 0001354 285.5988 293.3737 15.76775451  2092
STARLINK-36141          
1 67057U 25294AD  25357.83334491 -.01890041  00000+0 -13074-1 0  9994
2 67057  43.0001 114.1408 0001456 282.4157 294.4451 15.76789662  2007
STARLINK-35767          
1 67058U 25294AE  25357.83334491 -.01879740  00000+0 -12996-1 0  9990
2 67058  43.0003 114.1455 0001360 279.8614 295.0315 15.76784732  1899
HULIANWANG DIGUI-119    
1 67059U 25295A   25357.78193741  .00000011  00000+0  72808-4 0  9992
2 67059  50.0051 325.6570 0014029 285.3275  74.6088 14.24615946  1697
HULIANWANG DIGUI-120    
1 67060U 25295B   25357.77762159  .00000001  00000+0  67209-4 0  9996
2 67060  50.0058 325.6343 0013178 286.4479  73.4987 14.25711376  1696
