CCSDS_OMM_VERS = 2.0
CREATION_DATE  = 
ORIGINATOR     = 

OBJECT_NAME    = STARLINK-35877
OBJECT_ID      = 2025-294V
CENTER_NAME    = EARTH
REF_FRAME      = TEME
TIME_SYSTEM    = UTC
MEAN_ELEMENT_THEORY = SGP/SGP4

EPOCH          = 2025-12-23T20:00:01.000224
MEAN_MOTION    = 15.76880238
ECCENTRICITY   = .0001357
INCLINATION    = 43.0003
RA_OF_ASC_NODE = 114.1855
ARG_OF_PERICENTER = 280.4570
MEAN_ANOMALY   = 278.8878

EPHEMERIS_TYPE = 0
CLASSIFICATION_TYPE = U
NORAD_CAT_ID   = 67049
ELEMENT_SET_NO = 999
REV_AT_EPOCH   = 208
BSTAR          = -.12932E-1
MEAN_MOTION_DOT = -.1878707E-1
MEAN_MOTION_DDOT = 0

CCSDS_OMM_VERS = 2.0
CREATION_DATE  = 
ORIGINATOR     = 

OBJECT_NAME    = STARLINK-36078
OBJECT_ID      = 2025-294W
CENTER_NAME    = EARTH
REF_FRAME      = TEME
TIME_SYSTEM    = UTC
MEAN_ELEMENT_THEORY = SGP/SGP4

EPOCH          = 2025-12-23T20:00:01.000224
MEAN_MOTION    = 15.76861999
ECCENTRICITY   = .000128
INCLINATION    = 43.0003
RA_OF_ASC_NODE = 114.1796
ARG_OF_PERICENTER = 281.2998
MEAN_ANOMALY   = 280.3874

EPHEMERIS_TYPE = 0
CLASSIFICATION_TYPE = U
NORAD_CAT_ID   = 67050
ELEMENT_SET_NO = 999
REV_AT_EPOCH   = 200
BSTAR          = -.12977E-1
MEAN_MOTION_DOT = -.1882994E-1
MEAN_MOTION_DDOT = 0

CCSDS_OMM_VERS = 2.0
CREATION_DATE  = 
ORIGINATOR     = 

OBJECT_NAME    = STARLINK-35706
OBJECT_ID      = 2025-294X
CENTER_NAME    = EARTH
REF_FRAME      = TEME
TIME_SYSTEM    = UTC
MEAN_ELEMENT_THEORY = SGP/SGP4

EPOCH          = 2025-12-23T20:00:01.000224
MEAN_MOTION    = 15.76844760
ECCENTRICITY   = .0001369
INCLINATION    = 43.0003
RA_OF_ASC_NODE = 114.1735
ARG_OF_PERICENTER = 280.2106
MEAN_ANOMALY   = 283.8034

EPHEMERIS_TYPE = 0
CLASSIFICATION_TYPE = U
NORAD_CAT_ID   = 67051
ELEMENT_SET_NO = 999
REV_AT_EPOCH   = 208
BSTAR          = -.13003E-1
MEAN_MOTION_DOT = -.1885067E-1
MEAN_MOTION_DDOT = 0

CCSDS_OMM_VERS = 2.0
CREATION_DATE  = 
ORIGINATOR     = 

OBJECT_NAME    = STARLINK-35720
OBJECT_ID      = 2025-294Y
CENTER_NAME    = EARTH
REF_FRAME      = TEME
TIME_SYSTEM    = UTC
MEAN_ELEMENT_THEORY = SGP/SGP4

EPOCH          = 2025-12-23T20:00:01.000224
MEAN_MOTION    = 15.76842998
ECCENTRICITY   = .0001395
INCLINATION    = 43.0003
RA_OF_ASC_NODE = 114.1686
ARG_OF_PERICENTER = 279.5328
MEAN_ANOMALY   = 286.4684

EPHEMERIS_TYPE = 0
CLASSIFICATION_TYPE = U
NORAD_CAT_ID   = 67052
ELEMENT_SET_NO = 999
REV_AT_EPOCH   = 207
BSTAR          = -.13012E-1
MEAN_MOTION_DOT = -.1886089E-1
MEAN_MOTION_DDOT = 0

CCSDS_OMM_VERS = 2.0
CREATION_DATE  = 
ORIGINATOR     = 

OBJECT_NAME    = STARLINK-35739
OBJECT_ID      = 2025-294Z
CENTER_NAME    = EARTH
REF_FRAME      = TEME
TIME_SYSTEM    = UTC
MEAN_ELEMENT_THEORY = SGP/SGP4

EPOCH          = 2025-12-23T20:00:01.000224
MEAN_MOTION    = 15.76828653
ECCENTRICITY   = .000142
INCLINATION    = 43.0004
RA_OF_ASC_NODE = 114.1629
ARG_OF_PERICENTER = 279.6831
MEAN_ANOMALY   = 288.5123

EPHEMERIS_TYPE = 0
CLASSIFICATION_TYPE = U
NORAD_CAT_ID   = 67053
ELEMENT_SET_NO = 999
REV_AT_EPOCH   = 173
BSTAR          = -.13001E-1
MEAN_MOTION_DOT = -.1883709E-1
MEAN_MOTION_DDOT = 0

CCSDS_OMM_VERS = 2.0
CREATION_DATE  = 
ORIGINATOR     = 

OBJECT_NAME    = STARLINK-35754
OBJECT_ID      = 2025-294AA
CENTER_NAME    = EARTH
REF_FRAME      = TEME
TIME_SYSTEM    = UTC
MEAN_ELEMENT_THEORY = SGP/SGP4

EPOCH          = 2025-12-23T20:00:01.000224
MEAN_MOTION    = 15.76810392
ECCENTRICITY   = .0001289
INCLINATION    = 43.0004
RA_OF_ASC_NODE = 114.1571
ARG_OF_PERICENTER = 280.5200
MEAN_ANOMALY   = 290.0381

EPHEMERIS_TYPE = 0
CLASSIFICATION_TYPE = U
NORAD_CAT_ID   = 67054
ELEMENT_SET_NO = 999
REV_AT_EPOCH   = 189
BSTAR          = -.13032E-1
MEAN_MOTION_DOT = -.1886082E-1
MEAN_MOTION_DDOT = 0

CCSDS_OMM_VERS = 2.0
CREATION_DATE  = 
ORIGINATOR     = 

OBJECT_NAME    = STARLINK-35790
OBJECT_ID      = 2025-294AB
CENTER_NAME    = EARTH
REF_FRAME      = TEME
TIME_SYSTEM    = UTC
MEAN_ELEMENT_THEORY = SGP/SGP4

EPOCH          = 2025-12-23T20:00:01.000224
MEAN_MOTION    = 15.76793616
ECCENTRICITY   = .000124
INCLINATION    = 43.0003
RA_OF_ASC_NODE = 114.1508
ARG_OF_PERICENTER = 278.5174
MEAN_ANOMALY   = 294.3288

EPHEMERIS_TYPE = 0
CLASSIFICATION_TYPE = U
NORAD_CAT_ID   = 67055
ELEMENT_SET_NO = 999
REV_AT_EPOCH   = 208
BSTAR          = -.1304E-1
MEAN_MOTION_DOT = -.1885923E-1
MEAN_MOTION_DDOT = 0

CCSDS_OMM_VERS = 2.0
CREATION_DATE  = 
ORIGINATOR     = 

OBJECT_NAME    = STARLINK-36143
OBJECT_ID      = 2025-294AC
CENTER_NAME    = EARTH
REF_FRAME      = TEME
TIME_SYSTEM    = UTC
MEAN_ELEMENT_THEORY = SGP/SGP4

EPOCH          = 2025-12-23T20:00:01.000224
MEAN_MOTION    = 15.76775451
ECCENTRICITY   = .0001354
INCLINATION    = 43.0002
RA_OF_ASC_NODE = 114.1351
ARG_OF_PERICENTER = 285.5988
MEAN_ANOMALY   = 293.3737

EPHEMERIS_TYPE = 0
CLASSIFICATION_TYPE = U
NORAD_CAT_ID   = 67056
ELEMENT_SET_NO = 999
REV_AT_EPOCH   = 209
BSTAR          = -.13027E-1
MEAN_MOTION_DOT = -.1883017E-1
MEAN_MOTION_DDOT = 0

CCSDS_OMM_VERS = 2.0
CREATION_DATE  = 
ORIGINATOR     = 

OBJECT_NAME    = STARLINK-36141
OBJECT_ID      = 2025-294AD
CENTER_NAME    = EARTH
REF_FRAME      = TEME
TIME_SYSTEM    = UTC
MEAN_ELEMENT_THEORY = SGP/SGP4

EPOCH          = 2025-12-23T20:00:01.000224
MEAN_MOTION    = 15.76789662
ECCENTRICITY   = .0001456
INCLINATION    = 43.0001
RA_OF_ASC_NODE = 114.1408
ARG_OF_PERICENTER = 282.4157
MEAN_ANOMALY   = 294.4451

EPHEMERIS_TYPE = 0
CLASSIFICATION_TYPE = U
NORAD_CAT_ID   = 67057
ELEMENT_SET_NO = 999
REV_AT_EPOCH   = 200
BSTAR          = -.13074E-1
MEAN_MOTION_DOT = -.1890041E-1
MEAN_MOTION_DDOT = 0

CCSDS_OMM_VERS = 2.0
CREATION_DATE  = 
ORIGINATOR     = 

OBJECT_NAME    = STARLINK-35767
OBJECT_ID      = 2025-294AE
CENTER_NAME    = EARTH
REF_FRAME      = TEME
TIME_SYSTEM    = UTC
MEAN_ELEMENT_THEORY = SGP/SGP4

EPOCH          = 2025-12-23T20:00:01.000224
MEAN_MOTION    = 15.76784732
ECCENTRICITY   = .000136
INCLINATION    = 43.0003
RA_OF_ASC_NODE = 114.1455
ARG_OF_PERICENTER = 279.8614
MEAN_ANOMALY   = 295.0315

EPHEMERIS_TYPE = 0
CLASSIFICATION_TYPE = U
NORAD_CAT_ID   = 67058
ELEMENT_SET_NO = 999
REV_AT_EPOCH   = 189
BSTAR          = -.12996E-1
MEAN_MOTION_DOT = -.187974E-1
MEAN_MOTION_DDOT = 0

CCSDS_OMM_VERS = 2.0
CREATION_DATE  = 
ORIGINATOR     = 

OBJECT_NAME    = HULIANWANG DIGUI-119
OBJECT_ID      = 2025-295A
CENTER_NAME    = EARTH
REF_FRAME      = TEME
TIME_SYSTEM    = UTC
MEAN_ELEMENT_THEORY = SGP/SGP4

EPOCH          = 2025-12-23T18:45:59.392224
MEAN_MOTION    = 14.24615946
ECCENTRICITY   = .0014029
INCLINATION    = 50.0051
RA_OF_ASC_NODE = 325.6570
ARG_OF_PERICENTER = 285.3275
MEAN_ANOMALY   = 74.6088

EPHEMERIS_TYPE = 0
CLASSIFICATION_TYPE = U
NORAD_CAT_ID   = 67059
ELEMENT_SET_NO = 999
REV_AT_EPOCH   = 169
BSTAR          = .72808E-4
MEAN_MOTION_DOT = .11E-6
MEAN_MOTION_DDOT = 0

CCSDS_OMM_VERS = 2.0
CREATION_DATE  = 
ORIGINATOR     = 

OBJECT_NAME    = HULIANWANG DIGUI-120
OBJECT_ID      = 2025-295B
CENTER_NAME    = EARTH
REF_FRAME      = TEME
TIME_SYSTEM    = UTC
MEAN_ELEMENT_THEORY = SGP/SGP4

EPOCH          = 2025-12-23T18:39:46.505376
MEAN_MOTION    = 14.25711376
ECCENTRICITY   = .0013178
INCLINATION    = 50.0058
RA_OF_ASC_NODE = 325.6343
ARG_OF_PERICENTER = 286.4479
MEAN_ANOMALY   = 73.4987

EPHEMERIS_TYPE = 0
CLASSIFICATION_TYPE = U
NORAD_CAT_ID   = 67060
ELEMENT_SET_NO = 999
REV_AT_EPOCH   = 169
BSTAR          = .67209E-4
MEAN_MOTION_DOT = .1E-7
MEAN_MOTION_DDOT = 0

